{"type":"FeatureCollection","name":"Mandaluyong Barangay Boundaries","features":[{"type":"Feature","properties":{"barangay":"Addition Hills","psgc_code":"1380500001","legacy_psgc_code":"PH1307401001","city":"City of Mandaluyong","district":"Metropolitan Manila Second District","region":"National Capital Region (NCR)","area_sqkm":1.16667505718},"geometry":{"type":"Polygon","coordinates":[[[121.04378453900006,14.593817134000062],[121.04635974700011,14.587226228000077],[121.03706857300006,14.589442094000049],[121.04160011500005,14.586341410000045],[121.03477624000004,14.580133528000033],[121.03468091900004,14.590720646000022],[121.04378453900006,14.593817134000062]]]}},{"type":"Feature","properties":{"barangay":"Bagong Silang","psgc_code":"1380500002","legacy_psgc_code":"PH1307401002","city":"City of Mandaluyong","district":"Metropolitan Manila Second District","region":"National Capital Region (NCR)","area_sqkm":0.13922523959},"geometry":{"type":"Polygon","coordinates":[[[121.0292127240001,14.591267394000056],[121.03340201700007,14.591662477000057],[121.03198882000004,14.589707657000076],[121.0292127240001,14.591267394000056]]]}},{"type":"Feature","properties":{"barangay":"Barangka Drive","psgc_code":"1380500003","legacy_psgc_code":"PH1307401003","city":"City of Mandaluyong","district":"Metropolitan Manila Second District","region":"National Capital Region (NCR)","area_sqkm":0.212788525297},"geometry":{"type":"Polygon","coordinates":[[[121.040689874,14.57527581000005],[121.0375623330001,14.569647965000058],[121.03405005200011,14.570674741000062],[121.03566553200005,14.573543959000062],[121.040689874,14.57527581000005]]]}},{"type":"Feature","properties":{"barangay":"Barangka Ibaba","psgc_code":"1380500004","legacy_psgc_code":"PH1307401004","city":"City of Mandaluyong","district":"Metropolitan Manila Second District","region":"National Capital Region (NCR)","area_sqkm":0.159895621932},"geometry":{"type":"Polygon","coordinates":[[[121.04101291000006,14.57341126600005],[121.04032344600012,14.568108746000064],[121.03750213800004,14.567446330000053],[121.03524167300009,14.569783879000056],[121.04101291000006,14.57341126600005]]]}},{"type":"Feature","properties":{"barangay":"Barangka Ilaya","psgc_code":"1380500005","legacy_psgc_code":"PH1307401005","city":"City of Mandaluyong","district":"Metropolitan Manila Second District","region":"National Capital Region (NCR)","area_sqkm":0.482162782353},"geometry":{"type":"Polygon","coordinates":[[[121.05151039500004,14.575895368000033],[121.04951601500011,14.568560597000044],[121.04318345400009,14.568717216000039],[121.043886,14.573844976000032],[121.05151039500004,14.575895368000033]]]}},{"type":"Feature","properties":{"barangay":"Barangka Itaas","psgc_code":"1380500006","legacy_psgc_code":"PH1307401006","city":"City of Mandaluyong","district":"Metropolitan Manila Second District","region":"National Capital Region (NCR)","area_sqkm":0.178010957128},"geometry":{"type":"Polygon","coordinates":[[[121.04080378700007,14.572688030000052],[121.04318345400009,14.568717216000039],[121.04032344600012,14.568108746000064],[121.04080378700007,14.572688030000052]]]}},{"type":"Feature","properties":{"barangay":"Burol","psgc_code":"1380500007","legacy_psgc_code":"PH1307401007","city":"City of Mandaluyong","district":"Metropolitan Manila Second District","region":"National Capital Region (NCR)","area_sqkm":0.0204605149246},"geometry":{"type":"Polygon","coordinates":[[[121.02695740900003,14.590677855000024],[121.02851964400008,14.589460832000043],[121.02691234200006,14.588801748000037],[121.02695740900003,14.590677855000024]]]}},{"type":"Feature","properties":{"barangay":"Buayang Bato","psgc_code":"1380500008","legacy_psgc_code":"PH1307401008","city":"City of Mandaluyong","district":"Metropolitan Manila Second District","region":"National Capital Region (NCR)","area_sqkm":0.0826451635597},"geometry":{"type":"Polygon","coordinates":[[[121.04951601500011,14.568560597000044],[121.05225718600002,14.570291231000056],[121.05139764300009,14.567941174000055],[121.04951601500011,14.568560597000044]]]}},{"type":"Feature","properties":{"barangay":"Daang Bakal","psgc_code":"1380500009","legacy_psgc_code":"PH1307401009","city":"City of Mandaluyong","district":"Metropolitan Manila Second District","region":"National Capital Region (NCR)","area_sqkm":0.173070670075},"geometry":{"type":"Polygon","coordinates":[[[121.02544239200006,14.592522145000032],[121.03053920200011,14.594223946000056],[121.02976410200006,14.590729699000065],[121.02544239200006,14.592522145000032]]]}},{"type":"Feature","properties":{"barangay":"Hagdang Bato Itaas","psgc_code":"1380500010","legacy_psgc_code":"PH1307401010","city":"City of Mandaluyong","district":"Metropolitan Manila Second District","region":"National Capital Region (NCR)","area_sqkm":0.172959923348},"geometry":{"type":"Polygon","coordinates":[[[121.02788189500006,14.58906393500007],[121.03257722600006,14.589045508000027],[121.03279298200005,14.586511547000043],[121.02788189500006,14.58906393500007]]]}},{"type":"Feature","properties":{"barangay":"Hagdang Bato Libis","psgc_code":"1380500011","legacy_psgc_code":"PH1307401011","city":"City of Mandaluyong","district":"Metropolitan Manila Second District","region":"National Capital Region (NCR)","area_sqkm":0.144516945455},"geometry":{"type":"Polygon","coordinates":[[[121.03198882000004,14.589707657000076],[121.03685850600004,14.587675197000067],[121.03279298200005,14.586511547000043],[121.03198882000004,14.589707657000076]]]}},{"type":"Feature","properties":{"barangay":"Harapin Ang Bukas","psgc_code":"1380500012","legacy_psgc_code":"PH1307401012","city":"City of Mandaluyong","district":"Metropolitan Manila Second District","region":"National Capital Region (NCR)","area_sqkm":0.0477767664238},"geometry":{"type":"Polygon","coordinates":[[[121.02851964400008,14.589460832000043],[121.027177101,14.591773992000071],[121.02961874400012,14.590788910000072],[121.02851964400008,14.589460832000043]]]}},{"type":"Feature","properties":{"barangay":"Highway Hills","psgc_code":"1380500013","legacy_psgc_code":"PH1307401013","city":"City of Mandaluyong","district":"Metropolitan Manila Second District","region":"National Capital Region (NCR)","area_sqkm":1.15732443291},"geometry":{"type":"Polygon","coordinates":[[[121.04722048600001,14.586560402000032],[121.0571248330001,14.578129807000039],[121.05197249900004,14.569232224000075],[121.04627531000006,14.576010474000043],[121.04722048600001,14.586560402000032]]]}},{"type":"Feature","properties":{"barangay":"Hulo","psgc_code":"1380500014","legacy_psgc_code":"PH1307401014","city":"City of Mandaluyong","district":"Metropolitan Manila Second District","region":"National Capital Region (NCR)","area_sqkm":0.373959133466},"geometry":{"type":"Polygon","coordinates":[[[121.02566471600005,14.574477711000043],[121.02851247700005,14.574971873000038],[121.03750213800004,14.567446330000053],[121.02566471600005,14.574477711000043]]]}},{"type":"Feature","properties":{"barangay":"Mabini-J. Rizal","psgc_code":"1380500015","legacy_psgc_code":"PH1307401015","city":"City of Mandaluyong","district":"Metropolitan Manila Second District","region":"National Capital Region (NCR)","area_sqkm":0.199598327349},"geometry":{"type":"Polygon","coordinates":[[[121.01962518800008,14.584056282000063],[121.02461896600005,14.586124718000065],[121.02089960400008,14.580893579000076],[121.01962518800008,14.584056282000063]]]}},{"type":"Feature","properties":{"barangay":"Malamig","psgc_code":"1380500016","legacy_psgc_code":"PH1307401016","city":"City of Mandaluyong","district":"Metropolitan Manila Second District","region":"National Capital Region (NCR)","area_sqkm":0.314456584655},"geometry":{"type":"Polygon","coordinates":[[[121.040689874,14.57527581000005],[121.0487985530001,14.574661579000065],[121.04080378700007,14.572688030000052],[121.040689874,14.57527581000005]]]}},{"type":"Feature","properties":{"barangay":"Mauway","psgc_code":"1380500017","legacy_psgc_code":"PH1307401017","city":"City of Mandaluyong","district":"Metropolitan Manila Second District","region":"National Capital Region (NCR)","area_sqkm":0.65723144072},"geometry":{"type":"Polygon","coordinates":[[[121.0432830950001,14.586611505000064],[121.04762271700008,14.579301066000028],[121.04627531000006,14.576010474000043],[121.0373432350001,14.579123383000024],[121.0432830950001,14.586611505000064]]]}},{"type":"Feature","properties":{"barangay":"Namayan","psgc_code":"1380500018","legacy_psgc_code":"PH1307401018","city":"City of Mandaluyong","district":"Metropolitan Manila Second District","region":"National Capital Region (NCR)","area_sqkm":0.385451738421},"geometry":{"type":"Polygon","coordinates":[[[121.01723501100003,14.579737567000052],[121.02089960400008,14.580893579000076],[121.02643402400008,14.578817542000024],[121.01723501100003,14.579737567000052]]]}},{"type":"Feature","properties":{"barangay":"New Zañiga","psgc_code":"1380500019","legacy_psgc_code":"PH1307401019","city":"City of Mandaluyong","district":"Metropolitan Manila Second District","region":"National Capital Region (NCR)","area_sqkm":0.224865625458},"geometry":{"type":"Polygon","coordinates":[[[121.02662832400006,14.583199507000074],[121.03195981200008,14.586125770000024],[121.02829493500008,14.57953006400004],[121.02662832400006,14.583199507000074]]]}},{"type":"Feature","properties":{"barangay":"Old Zañiga","psgc_code":"1380500020","legacy_psgc_code":"PH1307401020","city":"City of Mandaluyong","district":"Metropolitan Manila Second District","region":"National Capital Region (NCR)","area_sqkm":0.246036693105},"geometry":{"type":"Polygon","coordinates":[[[121.022181,14.583002976000046],[121.02829493500008,14.57953006400004],[121.02703312500012,14.577293097000052],[121.022181,14.583002976000046]]]}},{"type":"Feature","properties":{"barangay":"Pag-asa","psgc_code":"1380500021","legacy_psgc_code":"PH1307401021","city":"City of Mandaluyong","district":"Metropolitan Manila Second District","region":"National Capital Region (NCR)","area_sqkm":0.122434246429},"geometry":{"type":"Polygon","coordinates":[[[121.0224342350001,14.588993027000072],[121.02691234200006,14.588801748000037],[121.02395626200007,14.587607751000064],[121.0224342350001,14.588993027000072]]]}},{"type":"Feature","properties":{"barangay":"Plainview","psgc_code":"1380500022","legacy_psgc_code":"PH1307401022","city":"City of Mandaluyong","district":"Metropolitan Manila Second District","region":"National Capital Region (NCR)","area_sqkm":1.08353703473},"geometry":{"type":"Polygon","coordinates":[[[121.03260874400007,14.582229811000047],[121.04274710700008,14.578137801000025],[121.03410206700005,14.57074132200006],[121.02787497600002,14.576285905000077],[121.03260874400007,14.582229811000047]]]}},{"type":"Feature","properties":{"barangay":"Pleasant Hills","psgc_code":"1380500023","legacy_psgc_code":"PH1307401023","city":"City of Mandaluyong","district":"Metropolitan Manila Second District","region":"National Capital Region (NCR)","area_sqkm":0.206891072756},"geometry":{"type":"Polygon","coordinates":[[[121.03706857300006,14.589442094000049],[121.04320196900005,14.58862033400004],[121.04635974700011,14.587226228000077],[121.03706857300006,14.589442094000049]]]}},{"type":"Feature","properties":{"barangay":"Poblacion","psgc_code":"1380500024","legacy_psgc_code":"PH1307401024","city":"City of Mandaluyong","district":"Metropolitan Manila Second District","region":"National Capital Region (NCR)","area_sqkm":0.226015297301},"geometry":{"type":"Polygon","coordinates":[[[121.02395626200007,14.587607751000064],[121.03022087400007,14.58716425700004],[121.02662832400006,14.583199507000074],[121.02395626200007,14.587607751000064]]]}},{"type":"Feature","properties":{"barangay":"San Jose","psgc_code":"1380500025","legacy_psgc_code":"PH1307401025","city":"City of Mandaluyong","district":"Metropolitan Manila Second District","region":"National Capital Region (NCR)","area_sqkm":0.0887748520912},"geometry":{"type":"Polygon","coordinates":[[[121.03295767600002,14.586563754000053],[121.02803630300002,14.57768840600005],[121.02785983400008,14.576433386000076],[121.03295767600002,14.586563754000053]]]}},{"type":"Feature","properties":{"barangay":"Vergara","psgc_code":"1380500026","legacy_psgc_code":"PH1307401026","city":"City of Mandaluyong","district":"Metropolitan Manila Second District","region":"National Capital Region (NCR)","area_sqkm":0.173170362749},"geometry":{"type":"Polygon","coordinates":[[[121.02267617000007,14.57842660800003],[121.02566471600005,14.574477711000043],[121.02127098500011,14.57719976900006],[121.02267617000007,14.57842660800003]]]}},{"type":"Feature","properties":{"barangay":"Wack-wack Greenhills","psgc_code":"1380500027","legacy_psgc_code":"PH1307401027","city":"City of Mandaluyong","district":"Metropolitan Manila Second District","region":"National Capital Region (NCR)","area_sqkm":2.87409851003},"geometry":{"type":"Polygon","coordinates":[[[121.05936956100004,14.601178464000043],[121.06001621300004,14.58211418600007],[121.0571248330001,14.578129807000039],[121.0435567290001,14.593996203000074],[121.05936956100004,14.601178464000043]]]}}]}